{
  "type": "FeatureCollection",
  "features": [
    {
      "type": "Feature",
      "properties": {
        "norad_id": 39617,
        "name": "ASTRA 5B (EGNOS/PRN 123)",
        "group": "gnss",
        "lat": -0.05972848007837861,
        "lon": -116.1213937918622,
        "alt_km": 35768.53401919021,
        "timestamp": "2025-12-04T09:47:37.764239+00:00",
        "meta_object_name": "ASTRA 5B (EGNOS/PRN 123)",
        "meta_object_id": "2014-011B",
        "meta_epoch": "2025-12-03T17:17:33.417888",
        "meta_mean_motion": 1.00267413,
        "meta_eccentricity": 0.00045192,
        "meta_inclination": 0.0482,
        "meta_ra_of_asc_node": 12.4606,
        "meta_arg_of_pericenter": 244.0222,
        "meta_mean_anomaly": 99.2433,
        "meta_ephemeris_type": 0,
        "meta_classification_type": "U",
        "meta_norad_cat_id": 39617,
        "meta_element_set_no": 999,
        "meta_rev_at_epoch": 4270,
        "meta_bstar": 0,
        "meta_mean_motion_dot": 1.54e-06,
        "meta_mean_motion_ddot": 0,
        "tle_line1": "1 39617U 14011B   25337.72052567  .00000154  00000+0  00000+0 0  9995",
        "tle_line2": "2 39617   0.0482  12.4606 0004519 244.0222  99.2433  1.00267413 42703"
      },
      "geometry": {
        "type": "Point",
        "coordinates": [
          -116.1213937918622,
          -0.05972848007837861
        ]
      }
    },
    {
      "type": "Feature",
      "properties": {
        "norad_id": 39620,
        "name": "COSMOS 2492 (754)",
        "group": "gnss",
        "lat": -32.33359730202007,
        "lon": 157.39350793163166,
        "alt_km": 19137.163669905276,
        "timestamp": "2025-12-04T09:47:37.764253+00:00",
        "meta_object_name": "COSMOS 2492 (754)",
        "meta_object_id": "2014-012A",
        "meta_epoch": "2025-12-02T17:14:30.403680",
        "meta_mean_motion": 2.13103072,
        "meta_eccentricity": 0.00141646,
        "meta_inclination": 65.4134,
        "meta_ra_of_asc_node": 320.6107,
        "meta_arg_of_pericenter": 311.0276,
        "meta_mean_anomaly": 48.8557,
        "meta_ephemeris_type": 0,
        "meta_classification_type": "U",
        "meta_norad_cat_id": 39620,
        "meta_element_set_no": 999,
        "meta_rev_at_epoch": 9105,
        "meta_bstar": 0,
        "meta_mean_motion_dot": -3.6e-07,
        "meta_mean_motion_ddot": 0,
        "tle_line1": "1 39620U 14012A   25336.71840745 -.00000036  00000+0  00000+0 0  9991",
        "tle_line2": "2 39620  65.4134 320.6107 0014164 311.0276  48.8557  2.13103072 91051"
      },
      "geometry": {
        "type": "Point",
        "coordinates": [
          157.39350793163166,
          -32.33359730202007
        ]
      }
    },
    {
      "type": "Feature",
      "properties": {
        "norad_id": 39635,
        "name": "IRNSS-1B",
        "group": "gnss",
        "lat": 14.615372615210509,
        "lon": -88.01146569749987,
        "alt_km": 35849.2621675505,
        "timestamp": "2025-12-04T09:47:37.764265+00:00",
        "meta_object_name": "IRNSS-1B",
        "meta_object_id": "2014-017A",
        "meta_epoch": "2025-12-03T19:41:17.178144",
        "meta_mean_motion": 1.0027569,
        "meta_eccentricity": 0.00176274,
        "meta_inclination": 28.8399,
        "meta_ra_of_asc_node": 243.7446,
        "meta_arg_of_pericenter": 183.6842,
        "meta_mean_anomaly": 355.8349,
        "meta_ephemeris_type": 0,
        "meta_classification_type": "U",
        "meta_norad_cat_id": 39635,
        "meta_element_set_no": 999,
        "meta_rev_at_epoch": 4283,
        "meta_bstar": 0,
        "meta_mean_motion_dot": 1.25e-06,
        "meta_mean_motion_ddot": 0,
        "tle_line1": "1 39635U 14017A   25337.82033771  .00000125  00000+0  00000+0 0  9996",
        "tle_line2": "2 39635  28.8399 243.7446 0017627 183.6842 355.8349  1.00275690 42836"
      },
      "geometry": {
        "type": "Point",
        "coordinates": [
          -88.01146569749987,
          14.615372615210509
        ]
      }
    },
    {
      "type": "Feature",
      "properties": {
        "norad_id": 39727,
        "name": "LUCH 5V (SDCM/PRN 141)",
        "group": "gnss",
        "lat": -4.168639581763169,
        "lon": -44.88429003306364,
        "alt_km": 35773.04620858548,
        "timestamp": "2025-12-04T09:47:37.764276+00:00",
        "meta_object_name": "LUCH 5V (SDCM/PRN 141)",
        "meta_object_id": "2014-023A",
        "meta_epoch": "2025-12-03T19:58:11.808768",
        "meta_mean_motion": 1.00271692,
        "meta_eccentricity": 0.00045321,
        "meta_inclination": 4.6454,
        "meta_ra_of_asc_node": 71.6144,
        "meta_arg_of_pericenter": 199.1759,
        "meta_mean_anomaly": 196.4512,
        "meta_ephemeris_type": 0,
        "meta_classification_type": "U",
        "meta_norad_cat_id": 39727,
        "meta_element_set_no": 999,
        "meta_rev_at_epoch": 4240,
        "meta_bstar": 0,
        "meta_mean_motion_dot": -2.55e-06,
        "meta_mean_motion_ddot": 0,
        "tle_line1": "1 39727U 14023A   25337.83208112 -.00000255  00000+0  00000+0 0  9994",
        "tle_line2": "2 39727   4.6454  71.6144 0004532 199.1759 196.4512  1.00271692 42407"
      },
      "geometry": {
        "type": "Point",
        "coordinates": [
          -44.88429003306364,
          -4.168639581763169
        ]
      }
    },
    {
      "type": "Feature",
      "properties": {
        "norad_id": 39741,
        "name": "GPS BIIF-6  (PRN 06)",
        "group": "gnss",
        "lat": -54.94666472427516,
        "lon": -91.1237603701573,
        "alt_km": 20105.451450684424,
        "timestamp": "2025-12-04T09:47:37.764288+00:00",
        "meta_object_name": "GPS BIIF-6  (PRN 06)",
        "meta_object_id": "2014-026A",
        "meta_epoch": "2025-12-03T00:29:48.019488",
        "meta_mean_motion": 2.00561842,
        "meta_eccentricity": 0.00389204,
        "meta_inclination": 56.5873,
        "meta_ra_of_asc_node": 339.1546,
        "meta_arg_of_pericenter": 318.1696,
        "meta_mean_anomaly": 41.56,
        "meta_ephemeris_type": 0,
        "meta_classification_type": "U",
        "meta_norad_cat_id": 39741,
        "meta_element_set_no": 999,
        "meta_rev_at_epoch": 8460,
        "meta_bstar": 0,
        "meta_mean_motion_dot": -6.2e-07,
        "meta_mean_motion_ddot": 0,
        "tle_line1": "1 39741U 14026A   25337.02069467 -.00000062  00000+0  00000+0 0  9998",
        "tle_line2": "2 39741  56.5873 339.1546 0038920 318.1696  41.5600  2.00561842 84609"
      },
      "geometry": {
        "type": "Point",
        "coordinates": [
          -91.1237603701573,
          -54.94666472427516
        ]
      }
    },
    {
      "type": "Feature",
      "properties": {
        "norad_id": 40001,
        "name": "COSMOS 2500 (755)",
        "group": "gnss",
        "lat": 64.64946311951736,
        "lon": 36.09813854724286,
        "alt_km": 19137.672875310665,
        "timestamp": "2025-12-04T09:47:37.764299+00:00",
        "meta_object_name": "COSMOS 2500 (755)",
        "meta_object_id": "2014-032A",
        "meta_epoch": "2025-12-01T22:51:13.641408",
        "meta_mean_motion": 2.13105853,
        "meta_eccentricity": 0.00082978,
        "meta_inclination": 65.3495,
        "meta_ra_of_asc_node": 320.3998,
        "meta_arg_of_pericenter": 219.081,
        "meta_mean_anomaly": 140.8682,
        "meta_ephemeris_type": 0,
        "meta_classification_type": "U",
        "meta_norad_cat_id": 40001,
        "meta_element_set_no": 999,
        "meta_rev_at_epoch": 8925,
        "meta_bstar": 0,
        "meta_mean_motion_dot": -3.1e-07,
        "meta_mean_motion_ddot": 0,
        "tle_line1": "1 40001U 14032A   25335.95224122 -.00000031  00000+0  00000+0 0  9993",
        "tle_line2": "2 40001  65.3495 320.3998 0008297 219.0810 140.8682  2.13105853 89251"
      },
      "geometry": {
        "type": "Point",
        "coordinates": [
          36.09813854724286,
          64.64946311951736
        ]
      }
    },
    {
      "type": "Feature",
      "properties": {
        "norad_id": 40105,
        "name": "GPS BIIF-7  (PRN 09)",
        "group": "gnss",
        "lat": -31.08208453502267,
        "lon": -59.044488246031925,
        "alt_km": 20199.135244644396,
        "timestamp": "2025-12-04T09:47:37.764313+00:00",
        "meta_object_name": "GPS BIIF-7  (PRN 09)",
        "meta_object_id": "2014-045A",
        "meta_epoch": "2025-12-02T02:40:49.418112",
        "meta_mean_motion": 2.00571797,
        "meta_eccentricity": 0.00329353,
        "meta_inclination": 55.2223,
        "meta_ra_of_asc_node": 96.323,
        "meta_arg_of_pericenter": 119.6015,
        "meta_mean_anomaly": 240.7039,
        "meta_ephemeris_type": 0,
        "meta_classification_type": "U",
        "meta_norad_cat_id": 40105,
        "meta_element_set_no": 999,
        "meta_rev_at_epoch": 8212,
        "meta_bstar": 0,
        "meta_mean_motion_dot": 7e-08,
        "meta_mean_motion_ddot": 0,
        "tle_line1": "1 40105U 14045A   25336.11168308  .00000007  00000+0  00000+0 0  9996",
        "tle_line2": "2 40105  55.2223  96.3230 0032935 119.6015 240.7039  2.00571797 82125"
      },
      "geometry": {
        "type": "Point",
        "coordinates": [
          -59.044488246031925,
          -31.08208453502267
        ]
      }
    }
  ]
}